[{"OBJECT_NAME":"STARLINK-30955","OBJECT_ID":"2023-180R","EPOCH":"2026-03-09T07:34:44.053824","MEAN_MOTION":15.27581809,"ECCENTRICITY":1.546e-5,"INCLINATION":43.0014,"RA_OF_ASC_NODE":54.2327,"ARG_OF_PERICENTER":229.976,"MEAN_ANOMALY":130.1078,"EPHEMERIS_TYPE":0,"CLASSIFICATION_TYPE":"U","NORAD_CAT_ID":58417,"ELEMENT_SET_NO":999,"REV_AT_EPOCH":12757,"BSTAR":3.3361208e-5,"MEAN_MOTION_DOT":6.57e-6,"MEAN_MOTION_DDOT":0},{"OBJECT_NAME":"CZ-6A DEB","OBJECT_ID":"2024-140AB","EPOCH":"2026-03-09T12:39:40.872096","MEAN_MOTION":14.79496195,"ECCENTRICITY":0.02124268,"INCLINATION":89.014,"RA_OF_ASC_NODE":280.9531,"ARG_OF_PERICENTER":168.3647,"MEAN_ANOMALY":192.2602,"EPHEMERIS_TYPE":0,"CLASSIFICATION_TYPE":"U","NORAD_CAT_ID":60626,"ELEMENT_SET_NO":999,"REV_AT_EPOCH":8539,"BSTAR":0.00037700721,"MEAN_MOTION_DOT":4.17e-5,"MEAN_MOTION_DDOT":0}]
